41917,IRIDIUM 106,2017,100.4,860.0,+,86.4,Active,1,LEO,USA,USA,Commercial/Government,Communications,Falcon,1 41917U 17003A   24304.52817497  .00000270  00000+0  89468-4 0  9996,2 41917  86.3977 337.0455 0002509  88.0712 272.0771 14.34216557407974,14.34216557,0.0002509,LEO
41918,IRIDIUM 103,2017,100.4,860.0,+,86.4,Active,1,LEO,USA,USA,Commercial/Government,Communications,Falcon,1 41918U 17003B   24304.37595144  .00000988  00000+0  34568-3 0  9998,2 41918  86.3979 337.0109 0002818 103.4758 256.6752 14.34218929407970,14.34218929,0.0002818,LEO
41919,IRIDIUM 109,2017,100.4,860.0,+,86.4,Active,1,LEO,USA,USA,Commercial/Government,Communications,Falcon,1 41919U 17003C   24304.52183107  .00000148  00000+0  45643-4 0  9993,2 41919  86.3974 336.9991 0002123 104.3389 255.8043 14.34216441407962,14.34216441,0.0002123,LEO
41920,IRIDIUM 102,2017,100.4,860.0,+,86.4,Active,1,LEO,USA,USA,Commercial/Government,Communications,Falcon,1 41920U 17003D   24304.35057802  .00000473  00000+0  16184-3 0  9996,2 41920  86.3976 337.0072 0002021  91.5325 268.6102 14.34215710408026,14.3421571,0.0002021,LEO
41921,IRIDIUM 105,2017,100.4,860.0,+,86.39,Active,1,LEO,USA,USA,Commercial/Government,Communications,Falcon,1 41921U 17003E   24304.25153999  .00000595  00000+0  20547-3 0  9993,2 41921  86.3928 305.4737 0002401  90.8717 269.2754 14.34216654409861,14.34216654,0.0002401,LEO
41922,IRIDIUM 104,2017,100.4,860.0,+,86.4,Active,1,LEO,USA,USA,Commercial/Government,Communications,Falcon,1 41922U 17003F   24304.50279786  .00000806  00000+0  28087-3 0  9997,2 41922  86.3977 336.9774 0001997 110.1146 250.0265 14.34215458408031,14.34215458,0.0001997,LEO
41923,IRIDIUM 114,2017,100.4,860.0,+,86.4,Active,1,LEO,USA,USA,Commercial/Government,Communications,Falcon,1 41923U 17003G   24304.36960874  .00000496  00000+0  17010-3 0  9996,2 41923  86.3975 337.0178 0002463  94.2624 265.8854 14.34216943407994,14.34216943,0.0002463,LEO
41924,IRIDIUM 108,2017,100.4,860.0,+,86.39,Active,1,LEO,USA,USA,Commercial/Government,Communications,Falcon,1 41924U 17003H   24304.46766253  .00000445  00000+0  15184-3 0  9997,2 41924  86.3921 305.2992 0002356  86.1425 274.0040 14.34219043409868,14.34219043,0.0002356,LEO
